CCSDS_OMM_VERS = 2.0
CREATION_DATE  = 
ORIGINATOR     = 

OBJECT_NAME    = HULIANWANG DIGUI 12D
OBJECT_ID      = 2025-231D
CENTER_NAME    = EARTH
REF_FRAME      = TEME
TIME_SYSTEM    = UTC
MEAN_ELEMENT_THEORY = SGP/SGP4

EPOCH          = 2025-10-31T14:42:05.738688
MEAN_MOTION    = 14.04583469
ECCENTRICITY   = .00067
INCLINATION    = 49.9999
RA_OF_ASC_NODE = 294.3659
ARG_OF_PERICENTER = 318.3727
MEAN_ANOMALY   = 41.6667

EPHEMERIS_TYPE = 0
CLASSIFICATION_TYPE = U
NORAD_CAT_ID   = 65998
ELEMENT_SET_NO = 999
REV_AT_EPOCH   = 219
BSTAR          = .14594E-3
MEAN_MOTION_DOT = .83E-6
MEAN_MOTION_DDOT = 0

CCSDS_OMM_VERS = 2.0
CREATION_DATE  = 
ORIGINATOR     = 

OBJECT_NAME    = HULIANWANG DIGUI 12E
OBJECT_ID      = 2025-231E
CENTER_NAME    = EARTH
REF_FRAME      = TEME
TIME_SYSTEM    = UTC
MEAN_ELEMENT_THEORY = SGP/SGP4

EPOCH          = 2025-10-31T14:44:06.157824
MEAN_MOTION    = 14.03842787
ECCENTRICITY   = .0008261
INCLINATION    = 50.0017
RA_OF_ASC_NODE = 294.3770
ARG_OF_PERICENTER = 328.0076
MEAN_ANOMALY   = 32.0326

EPHEMERIS_TYPE = 0
CLASSIFICATION_TYPE = U
NORAD_CAT_ID   = 65999
ELEMENT_SET_NO = 999
REV_AT_EPOCH   = 219
BSTAR          = .13624E-3
MEAN_MOTION_DOT = .65E-6
MEAN_MOTION_DDOT = 0

CCSDS_OMM_VERS = 2.0
CREATION_DATE  = 
ORIGINATOR     = 

OBJECT_NAME    = HULIANWANG DIGUI 12F
OBJECT_ID      = 2025-231F
CENTER_NAME    = EARTH
REF_FRAME      = TEME
TIME_SYSTEM    = UTC
MEAN_ELEMENT_THEORY = SGP/SGP4

EPOCH          = 2025-10-31T12:55:05.619936
MEAN_MOTION    = 14.04997253
ECCENTRICITY   = .0005537
INCLINATION    = 50.0059
RA_OF_ASC_NODE = 294.6510
ARG_OF_PERICENTER = 322.9178
MEAN_ANOMALY   = 37.1343

EPHEMERIS_TYPE = 0
CLASSIFICATION_TYPE = U
NORAD_CAT_ID   = 66000
ELEMENT_SET_NO = 999
REV_AT_EPOCH   = 218
BSTAR          = .14016E-3
MEAN_MOTION_DOT = .75E-6
MEAN_MOTION_DDOT = 0

CCSDS_OMM_VERS = 2.0
CREATION_DATE  = 
ORIGINATOR     = 

OBJECT_NAME    = HULIANWANG DIGUI 12G
OBJECT_ID      = 2025-231G
CENTER_NAME    = EARTH
REF_FRAME      = TEME
TIME_SYSTEM    = UTC
MEAN_ELEMENT_THEORY = SGP/SGP4

EPOCH          = 2025-10-31T12:57:13.337280
MEAN_MOTION    = 14.03864597
ECCENTRICITY   = .0006675
INCLINATION    = 50.0026
RA_OF_ASC_NODE = 294.6517
ARG_OF_PERICENTER = 335.6384
MEAN_ANOMALY   = 24.4204

EPHEMERIS_TYPE = 0
CLASSIFICATION_TYPE = U
NORAD_CAT_ID   = 66001
ELEMENT_SET_NO = 999
REV_AT_EPOCH   = 218
BSTAR          = .13266E-3
MEAN_MOTION_DOT = .59E-6
MEAN_MOTION_DDOT = 0

CCSDS_OMM_VERS = 2.0
CREATION_DATE  = 
ORIGINATOR     = 

OBJECT_NAME    = HULIANWANG DIGUI 12H
OBJECT_ID      = 2025-231H
CENTER_NAME    = EARTH
REF_FRAME      = TEME
TIME_SYSTEM    = UTC
MEAN_ELEMENT_THEORY = SGP/SGP4

EPOCH          = 2025-10-31T12:58:53.523264
MEAN_MOTION    = 14.03809889
ECCENTRICITY   = .0007705
INCLINATION    = 50.0064
RA_OF_ASC_NODE = 294.6667
ARG_OF_PERICENTER = 326.4430
MEAN_ANOMALY   = 33.5985

EPHEMERIS_TYPE = 0
CLASSIFICATION_TYPE = U
NORAD_CAT_ID   = 66002
ELEMENT_SET_NO = 999
REV_AT_EPOCH   = 218
BSTAR          = .28525E-3
MEAN_MOTION_DOT = .301E-5
MEAN_MOTION_DDOT = 0

CCSDS_OMM_VERS = 2.0
CREATION_DATE  = 
ORIGINATOR     = 

OBJECT_NAME    = HULIANWANG DIGUI 12J
OBJECT_ID      = 2025-231J
CENTER_NAME    = EARTH
REF_FRAME      = TEME
TIME_SYSTEM    = UTC
MEAN_ELEMENT_THEORY = SGP/SGP4

EPOCH          = 2025-10-30T16:22:47.479008
MEAN_MOTION    = 14.03903657
ECCENTRICITY   = .0005304
INCLINATION    = 50.0041
RA_OF_ASC_NODE = 298.1179
ARG_OF_PERICENTER = 318.5183
MEAN_ANOMALY   = 41.5318

EPHEMERIS_TYPE = 0
CLASSIFICATION_TYPE = U
NORAD_CAT_ID   = 66003
ELEMENT_SET_NO = 999
REV_AT_EPOCH   = 206
BSTAR          = .17374E-3
MEAN_MOTION_DOT = .124E-5
MEAN_MOTION_DDOT = 0

CCSDS_OMM_VERS = 2.0
CREATION_DATE  = 
ORIGINATOR     = 

OBJECT_NAME    = CZ-8A R/B
OBJECT_ID      = 2025-231K
CENTER_NAME    = EARTH
REF_FRAME      = TEME
TIME_SYSTEM    = UTC
MEAN_ELEMENT_THEORY = SGP/SGP4

EPOCH          = 2025-10-31T14:57:44.039232
MEAN_MOTION    = 14.30032385
ECCENTRICITY   = .0116699
INCLINATION    = 50.0035
RA_OF_ASC_NODE = 291.6704
ARG_OF_PERICENTER = 138.8426
MEAN_ANOMALY   = 222.1362

EPHEMERIS_TYPE = 0
CLASSIFICATION_TYPE = U
NORAD_CAT_ID   = 66004
ELEMENT_SET_NO = 999
REV_AT_EPOCH   = 223
BSTAR          = .68792E-4
MEAN_MOTION_DOT = .27E-6
MEAN_MOTION_DDOT = 0

CCSDS_OMM_VERS = 2.0
CREATION_DATE  = 
ORIGINATOR     = 

OBJECT_NAME    = STARLINK-34849
OBJECT_ID      = 2025-232A
CENTER_NAME    = EARTH
REF_FRAME      = TEME
TIME_SYSTEM    = UTC
MEAN_ELEMENT_THEORY = SGP/SGP4

EPOCH          = 2025-10-31T06:00:02.000160
MEAN_MOTION    = 15.69049159
ECCENTRICITY   = .00012261
INCLINATION    = 53.1592
RA_OF_ASC_NODE = 348.6520
ARG_OF_PERICENTER = 76.6598
MEAN_ANOMALY   = 100.1992

EPHEMERIS_TYPE = 0
CLASSIFICATION_TYPE = U
NORAD_CAT_ID   = 66005
ELEMENT_SET_NO = 999
REV_AT_EPOCH   = 271
BSTAR          = -.18176628E-1
MEAN_MOTION_DOT = -.190171E-1
MEAN_MOTION_DDOT = 0

CCSDS_OMM_VERS = 2.0
CREATION_DATE  = 
ORIGINATOR     = 

OBJECT_NAME    = STARLINK-35336
OBJECT_ID      = 2025-232B
CENTER_NAME    = EARTH
REF_FRAME      = TEME
TIME_SYSTEM    = UTC
MEAN_ELEMENT_THEORY = SGP/SGP4

EPOCH          = 2025-10-31T16:00:01.998720
MEAN_MOTION    = 15.67356054
ECCENTRICITY   = .0001146
INCLINATION    = 53.1596
RA_OF_ASC_NODE = 346.5993
ARG_OF_PERICENTER = 55.4608
MEAN_ANOMALY   = 316.9299

EPHEMERIS_TYPE = 0
CLASSIFICATION_TYPE = U
NORAD_CAT_ID   = 66006
ELEMENT_SET_NO = 999
REV_AT_EPOCH   = 279
BSTAR          = -.19628E-1
MEAN_MOTION_DOT = -.1913098E-1
MEAN_MOTION_DDOT = 0

CCSDS_OMM_VERS = 2.0
CREATION_DATE  = 
ORIGINATOR     = 

OBJECT_NAME    = STARLINK-35196
OBJECT_ID      = 2025-232C
CENTER_NAME    = EARTH
REF_FRAME      = TEME
TIME_SYSTEM    = UTC
MEAN_ELEMENT_THEORY = SGP/SGP4

EPOCH          = 2025-10-31T16:00:01.998720
MEAN_MOTION    = 15.67357729
ECCENTRICITY   = .0001155
INCLINATION    = 53.1596
RA_OF_ASC_NODE = 346.5959
ARG_OF_PERICENTER = 57.5288
MEAN_ANOMALY   = 316.7777

EPHEMERIS_TYPE = 0
CLASSIFICATION_TYPE = U
NORAD_CAT_ID   = 66007
ELEMENT_SET_NO = 999
REV_AT_EPOCH   = 279
BSTAR          = -.19649E-1
MEAN_MOTION_DOT = -.191498E-1
MEAN_MOTION_DDOT = 0

CCSDS_OMM_VERS = 2.0
CREATION_DATE  = 
ORIGINATOR     = 

OBJECT_NAME    = STARLINK-35236
OBJECT_ID      = 2025-232D
CENTER_NAME    = EARTH
REF_FRAME      = TEME
TIME_SYSTEM    = UTC
MEAN_ELEMENT_THEORY = SGP/SGP4

EPOCH          = 2025-10-31T16:00:01.998720
MEAN_MOTION    = 15.67355207
ECCENTRICITY   = .0001109
INCLINATION    = 53.1596
RA_OF_ASC_NODE = 346.5914
ARG_OF_PERICENTER = 50.0891
MEAN_ANOMALY   = 326.1348

EPHEMERIS_TYPE = 0
CLASSIFICATION_TYPE = U
NORAD_CAT_ID   = 66008
ELEMENT_SET_NO = 999
REV_AT_EPOCH   = 279
BSTAR          = -.19603E-1
MEAN_MOTION_DOT = -.1910859E-1
MEAN_MOTION_DDOT = 0

CCSDS_OMM_VERS = 2.0
CREATION_DATE  = 
ORIGINATOR     = 

OBJECT_NAME    = STARLINK-35276
OBJECT_ID      = 2025-232E
CENTER_NAME    = EARTH
REF_FRAME      = TEME
TIME_SYSTEM    = UTC
MEAN_ELEMENT_THEORY = SGP/SGP4

EPOCH          = 2025-10-31T16:00:01.998720
MEAN_MOTION    = 15.67356561
ECCENTRICITY   = .0001036
INCLINATION    = 53.1595
RA_OF_ASC_NODE = 346.5877
ARG_OF_PERICENTER = 53.5278
MEAN_ANOMALY   = 324.6134

EPHEMERIS_TYPE = 0
CLASSIFICATION_TYPE = U
NORAD_CAT_ID   = 66009
ELEMENT_SET_NO = 999
REV_AT_EPOCH   = 278
BSTAR          = -.19627E-1
MEAN_MOTION_DOT = -.1912955E-1
MEAN_MOTION_DDOT = 0

