HULIANWANG DIGUI 12D    
1 65998U 25231D   25304.61256642  .00000083  00000+0  14594-3 0  9992
2 65998  49.9999 294.3659 0006700 318.3727  41.6667 14.04583469  2196
HULIANWANG DIGUI 12E    
1 65999U 25231E   25304.61396016  .00000065  00000+0  13624-3 0  9996
2 65999  50.0017 294.3770 0008261 328.0076  32.0326 14.03842787  2190
HULIANWANG DIGUI 12F    
1 66000U 25231F   25304.53825949  .00000075  00000+0  14016-3 0  9990
2 66000  50.0059 294.6510 0005537 322.9178  37.1343 14.04997253  2188
HULIANWANG DIGUI 12G    
1 66001U 25231G   25304.53973770  .00000059  00000+0  13266-3 0  9995
2 66001  50.0026 294.6517 0006675 335.6384  24.4204 14.03864597  2182
HULIANWANG DIGUI 12H    
1 66002U 25231H   25304.54089726  .00000301  00000+0  28525-3 0  9990
2 66002  50.0064 294.6667 0007705 326.4430  33.5985 14.03809889  2186
HULIANWANG DIGUI 12J    
1 66003U 25231J   25303.68249397  .00000124  00000+0  17374-3 0  9990
2 66003  50.0041 298.1179 0005304 318.5183  41.5318 14.03903657  2063
CZ-8A R/B               
1 66004U 25231K   25304.62342638  .00000027  00000+0  68792-4 0  9991
2 66004  50.0035 291.6704 0116699 138.8426 222.1362 14.30032385  2238
STARLINK-34849          
1 66005U 25232A   25304.25002315 -.01901710  00000+0 -18177-1 0  9998
2 66005  53.1592 348.6520 0001226  76.6598 100.1992 15.69049159  2715
STARLINK-35336          
1 66006U 25232B   25304.66668980 -.01913098  00000+0 -19628-1 0  9994
2 66006  53.1596 346.5993 0001146  55.4608 316.9299 15.67356054  2797
STARLINK-35196          
1 66007U 25232C   25304.66668980 -.01914980  00000+0 -19649-1 0  9999
2 66007  53.1596 346.5959 0001155  57.5288 316.7777 15.67357729  2796
STARLINK-35236          
1 66008U 25232D   25304.66668980 -.01910859  00000+0 -19603-1 0  9991
2 66008  53.1596 346.5914 0001109  50.0891 326.1348 15.67355207  2793
STARLINK-35276          
1 66009U 25232E   25304.66668980 -.01912955  00000+0 -19627-1 0  9997
2 66009  53.1595 346.5877 0001036  53.5278 324.6134 15.67356561  2786
